#dP2021  7 10  0  0  0.00000000     289 ORBIT IGS14 BHN ESOC                    
## 2165 518400.00000000   300.00000000 59405 0.0000000000000                    
+  115   G13G28G21G22G07G05G20G31G17G15G16G29G12G19G02G25G01                    
+        G30G24G27G06G09G03G32G26G08G10G04G18G23G14G11R09R11                    
+        R20R19R13R01R22R16R08R03R07R02R17R18R21R05R15R12R04                    
+        R24E11E12E19E18E14E26E24E30E08E09E01E02E07E03E04E05                    
+        E21E25E27E31E36E13E15E33C11C12C14C19C20C27C28C22C21                    
+        C29C30C23C24C26C25C32C33C35C34C36C37C46C45C44C43C41                    
+        C42C06C07C08C09C10C13C16C38C39C40J01J02  0  0  0  0                    
++         5  5  5  6  5  5  5  5  5  5  7  5  5  5  5  5  5                    
++         5  5  5  4  5  7  5  6  5  5  5  5  5  5  5  7  6                    
++         6  5  6  7  6  6  6  5  5  5  5  5  5  5  5  6  5                    
++         5  5  5  5  5  5  5  5  5  5  5  6  7  5  5  5  5                    
++         5  5  5  5  5  5  5  5  6  5  5  6  5  6  5  6  4                    
++         5  5  5  5  5  5  6  6  5  5  5  6  6  5  5  6  6                    
++         6  6  5  6  7  6  7  6  8  7  8  7  7  0  0  0  0                    
%c M  cc GPS ccc cccc cccc cccc cccc ccccc ccccc ccccc ccccc                    
%c cc cc ccc ccc cccc cccc cccc cccc ccccc ccccc ccccc ccccc                    
%f  0.0000000  0.000000000  0.00000000000  0.000000000000000                    
%f  0.0000000  0.000000000  0.00000000000  0.000000000000000                    
%i    0    0    0    0      0      0      0      0         0                    
%i    0    0    0    0      0      0      0      0         0                    
/* CCCCCCCCCCCCCCCCCCCCCCCCCCCCCCCCCCCCCCCCCCCCCCCCCCCCCCCCCCCCCCCCCCCCCCCCCCCCC
/* CCCCCCCCCCCCCCCCCCCCCCCCCCCCCCCCCCCCCCCCCCCCCCCCCCCCCCCCCCCCCCCCCCCCCCCCCCCCC
/* CCCCCCCCCCCCCCCCCCCCCCCCCCCCCCCCCCCCCCCCCCCCCCCCCCCCCCCCCCCCCCCCCCCCCCCCCCCCC
/* PCV:IGS14      OL/AL:EOT11A   NONE     YN ORB:CoN CLK:CoN                    
*  2021  7 10 13 50  0.00000000                                                 
PG13 -23036.577641 -13194.259781   2062.427004    155.876036                    
PG28  -1474.186810 -16097.549779  21656.502026    540.279248                    
PG21  15788.832272    281.621221  22093.459126    130.398269                    
PG22  22180.877900  -6004.174200  13328.736217   -567.122852                    
PG07   7307.585131 -21813.312181 -12466.768044    199.078521                    
PG05 -21319.709549   1870.339534 -16008.367452    -47.490286                    
PG20 -15111.454102  -6648.670545 -20748.970200    520.331627                    
PG31   8065.553636  23211.688831  -9537.714206   -127.847527                    
PG17  -4206.547317 -17513.951924  19945.437133    471.625524                    
PG15 -25312.451396  -2243.220215   7940.080196   -136.509953                    
PG16  17936.400184   4981.423752 -19364.153891   -354.851147                    
PG29 -12352.937456   9500.277951 -21565.873405   -377.923826                    
PG12 -23946.308166   9584.227269   5782.354384    -66.683281                    
PG19 -13138.314418 -18602.454223  13498.901952     24.477564                    
PG02 -13351.223892 -16489.370672 -15287.805336   -618.591139                    
PG25 -19382.989520  17410.952878  -4612.761779    171.022198                    
PG01  13367.988839  -8478.951750  20990.061849    632.511297                    
PG30   -756.900968 -26396.237104  -1023.725967   -449.136664                    
PG24 -15318.359742   3333.557490  21178.583641    168.724669                    
PG27  23558.573744  12573.363120  -1934.262169   -160.689099                    
PG06  -7035.650127 -24391.937811  -7641.048867     38.132144                    
PG09  10474.058737 -11916.849828 -21364.910677   -354.908462                    
PG03  23202.777853 -11585.029664   5349.628265   -216.439648                    
PG32   8149.815155  17838.668878  18105.315172     14.793058                    
PG26   9094.076467  12747.787180 -21505.776640    108.873550                    
PG08  24897.051594   4919.091143   8334.279960    -28.284542                    
PG10  -3789.543166  18349.149595  18832.114049   -159.241617                    
PG04  20345.687188  -2797.357792 -16868.729046   -202.054267                    
PG18  -5777.380504  23688.196165 -10452.829795    341.906570                    
PG23 -14456.176551  19593.371000  10518.520101     86.489691                    
PG14   4359.418397 -18320.106836  18708.432412     50.665408                    
PG11 -11736.212796 -17493.159718 -16194.129937     12.105692                    
PR09   -230.900499 -18529.860263  17511.099021      2.199452                    
PR11 -15081.579915  13517.634871  15531.849455    -20.329437                    
PR20 -10412.940258 -22667.352957   5237.715144    -52.255415                    
PR19   2361.479776 -14431.263195  20894.629372   -150.982980                    
PR13   -495.213303  18953.648072 -17077.419421    -57.502667                    
PR01 -13148.545623  10115.839811  19386.238755     82.117930                    
PR22 -11341.164095    967.544630 -22837.767124   -121.954877                    
PR16   9995.088905 -23370.798591   2808.429497    -17.690881                    
PR08 -23956.447060   4454.953258   7568.287886    -59.884535                    
PR03  23282.710038   3801.879435   9811.044513     39.240096                    
PR07 -23544.920350  -3469.340135  -9082.809556    -42.082790                    
PR02   9284.240568   9923.656251  21642.610359    485.516855                    
PR17  16170.980287  15104.747499  12652.751976    439.875184                    
PR18  11943.700184     91.151116  22552.668184     82.951987                    
PR21 -16082.611854 -14299.825798 -13725.886945   -222.835762                    
PR05  11488.308966  -9957.259152 -20475.999849     75.093357                    
PR15  15340.521252 -13741.634880 -15021.821684    102.770266                    
PR12 -11063.284434  22911.613893  -1687.662136    244.158579                    
PR04  24029.790612  -4290.908264  -7384.547679     95.166890                    
PR24  11091.067000  22522.180539  -4460.781003     49.895324                    
PE11   5944.726050  28849.819286  -3010.036218   5738.934177                    
PE12  -7776.217464  20546.508196 -19852.743368   5118.047549                    
PE19 -28529.463512  -2112.229300   7614.838624    323.373741                    
PE18   -614.723151 -16928.479695  17434.916696  -1638.797356                    
PE14 -11145.729741  17222.803855 -24815.368583  -1495.432461                    
PE26 -16006.432805 -19407.238235 -15606.412845   1595.457894                    
PE24  -3729.174892  22115.450866 -19317.052949  -1000.373094                    
PE30  19529.962853 -22064.101873   2852.507460   2795.336275                    
PE08  14387.542213 -12559.697542 -22605.339010   5972.555537                    
PE09   7648.649069  18027.918449  22198.091119   5605.149342                    
PE01 -23758.841627   9419.217688  14938.637712  -1147.152770                    
PE02  23778.196164  -9548.520754 -14824.016574    231.947073                    
PE07  -7369.279994 -18185.207439 -22156.691870   -559.999068                    
PE03  27977.462692    404.923788  -9629.259932   -451.148302                    
PE04 -14840.818899  12441.485730  22397.016214   -810.374834                    
PE05  24899.402032  13229.304469   9006.976372   -266.297794                    
PE21 -14969.608491  -8129.843346  24210.528795   -675.449464                    
PE25  14804.838552   8317.814684 -24235.219827   -539.561618                    
PE27   2823.751961 -21771.156897  19862.767662    -72.622596                    
PE31 -18838.109917  22506.210796  -3849.635949   -483.101588                    
PE36  15735.438473  20105.831182  14978.469097   -232.517530                    
PE13  -5770.619501 -28826.903995   3429.674969    418.839417                    
PE15   7629.321919 -20567.765258  19870.341966    804.237595                    
PE33 -16503.370167    225.180774 -24573.064769   -467.889734                    
PC11 -21307.990909  -8476.667575 -15878.039491    449.410975                    
PC12 -18384.576330 -21005.577026    558.026675    816.095847                    
PC14 -26938.523465    973.282383  -7318.862104    819.657212                    
PC19  26746.023618  -7634.071025  -2078.338993    903.800914                    
PC20  23546.920993   4657.290998  14219.843032   -849.269221                    
PC27  12163.908310  23318.043366  -9374.595744    562.033230                    
PC28  -4453.787499  17266.879243 -21465.008196    -52.331172                    
PC22  14506.048060 -15890.228781 -17750.534432   -948.452364                    
PC21  -6089.428020 -14802.829410 -22843.533042   -935.420933                    
PC29  18376.369249  -1822.586687  20910.192370    417.548686                    
PC30  22091.918092  15241.361812   7668.028635    473.537128                    
PC23 -11167.006089  25240.713142   4145.225391   -965.829378                    
PC24 -13407.485488 -10305.243097  22201.556547   -932.471481                    
PC26  -2805.034975 -24372.314058  13324.733154    880.699052                    
PC25 -17207.238295  11854.765220  18487.003718   -888.074423                    
PC32   6133.582327  14804.877951  22860.395842   -924.394714                    
PC33 -26739.472206   7766.553591   2040.068446   -941.871441                    
PC35   4255.068346 -17198.429403  21542.681189   -193.804279                    
PC34 -22187.213475 -14681.544129  -8402.285881   -631.316470                    
PC36  17492.002906 -11090.577314 -18669.324462   -731.952174                    
PC37   1571.733546  24840.702807 -12580.981096   -866.246555                    
PC46  13821.716592   9058.554342 -22470.772887    185.368211                    
PC45  10999.457162 -25342.292267  -3987.659955    489.700485                    
PC44 -12761.432798 -22910.933641   9482.882485    282.307382                    
PC43 -18743.022144   1314.012267 -20637.570176   -815.044956                    
PC41 -14770.338799  15930.912530  17565.101422   -957.827879                    
PC42 -23130.056981  -5129.069561 -14719.429552   -918.410052                    
PC06  -7472.304748  25812.011958  33084.513205    606.945881                    
PC07 -22619.139424  28380.858907 -21644.731449    136.578026                    
PC08 -13234.234668  38784.602946  -8910.022647   -902.763903                    
PC09   6329.387419  33071.617136  25958.912374    384.515593                    
PC10  -9564.673945  29285.959512 -28732.004823    -20.356966                    
PC13  -5628.588295  41552.404870   2987.030248    331.396222                    
PC16  -4859.068860  26529.679437  32597.022261   -926.799476                    
PC38 -12559.494369  39440.919548  -7589.022808    160.746957                    
PC39  -2238.603436  27096.293588  32281.933507     32.257453                    
PC40 -16972.549788  24490.693455 -29869.779285    179.133171                    
PJ01 -30807.361278  23337.005039  21954.567473   -412.689606                    
PJ02 -34443.181253  24218.275188   7976.561584     -0.698892                    
EOF                                                                             
